IRIDIUM 26              
1 24903U 97043A   25029.62131337  .00001001  00000+0  33180-3 0  9994
2 24903  86.4011 168.7809 0001992  99.5741 260.5681 14.36942945436845
IRIDIUM 22              
1 24907U 97043E   25029.43764515  .00000981  00000+0  33265-3 0  9997
2 24907  86.4013 172.2724 0002054  92.5754 267.5678 14.35778727436863
DUMMY MASS 1            
1 24925U 97048A   25029.51257885  .00001033  00000+0  11299-3 0  9990
2 24925  86.3361 199.3813 0004422 283.5729  76.5003 14.86761780484525
DUMMY MASS 2            
1 24926U 97048B   25029.51899587  .00001014  00000+0  11155-3 0  9992
2 24926  86.3360 200.9593 0005389 298.9357  61.1326 14.86515484484301
IRIDIUM 29              
1 24944U 97051A   25029.50824932  .00001063  00000+0  35769-3 0  9998
2 24944  86.3970 201.9968 0002036  84.9760 275.1669 14.36247058433363
IRIDIUM 33              
1 24946U 97051C   25029.48011761  .00000709  00000+0  24329-3 0  9991
2 24946  86.3888 201.2587 0008451 157.4857 202.6711 14.34741678432865
IRIDIUM 28              
1 24948U 97051E   25029.57150300  .00000878  00000+0  28864-3 0  9991
2 24948  86.3981 199.5667 0002088 103.4493 256.6937 14.37185211433932
